CCSDS_OMM_VERS = 2.0
CREATION_DATE  = 
ORIGINATOR     = 

OBJECT_NAME    = STARLINK-35710
OBJECT_ID      = 2025-244G
CENTER_NAME    = EARTH
REF_FRAME      = TEME
TIME_SYSTEM    = UTC
MEAN_ELEMENT_THEORY = SGP/SGP4

EPOCH          = 2025-11-06T22:00:01.999584
MEAN_MOTION    = 15.84250654
ECCENTRICITY   = .00010415
INCLINATION    = 53.1537
RA_OF_ASC_NODE = 87.1222
ARG_OF_PERICENTER = 35.4442
MEAN_ANOMALY   = 19.5781

EPHEMERIS_TYPE = 0
CLASSIFICATION_TYPE = U
NORAD_CAT_ID   = 66212
ELEMENT_SET_NO = 999
REV_AT_EPOCH   = 258
BSTAR          = -.63824225E-2
MEAN_MOTION_DOT = -.1301144E-1
MEAN_MOTION_DDOT = 0

CCSDS_OMM_VERS = 2.0
CREATION_DATE  = 
ORIGINATOR     = 

OBJECT_NAME    = STARLINK-34204
OBJECT_ID      = 2025-244H
CENTER_NAME    = EARTH
REF_FRAME      = TEME
TIME_SYSTEM    = UTC
MEAN_ELEMENT_THEORY = SGP/SGP4

EPOCH          = 2025-11-06T22:00:01.999584
MEAN_MOTION    = 15.84226943
ECCENTRICITY   = .00009
INCLINATION    = 53.1538
RA_OF_ASC_NODE = 87.1268
ARG_OF_PERICENTER = 50.7849
MEAN_ANOMALY   = 2.2327

EPHEMERIS_TYPE = 0
CLASSIFICATION_TYPE = U
NORAD_CAT_ID   = 66213
ELEMENT_SET_NO = 999
REV_AT_EPOCH   = 277
BSTAR          = -.63314681E-2
MEAN_MOTION_DOT = -.1290607E-1
MEAN_MOTION_DDOT = 0

CCSDS_OMM_VERS = 2.0
CREATION_DATE  = 
ORIGINATOR     = 

OBJECT_NAME    = STARLINK-35714
OBJECT_ID      = 2025-244J
CENTER_NAME    = EARTH
REF_FRAME      = TEME
TIME_SYSTEM    = UTC
MEAN_ELEMENT_THEORY = SGP/SGP4

EPOCH          = 2025-11-06T22:00:01.999584
MEAN_MOTION    = 15.84278093
ECCENTRICITY   = .00010947
INCLINATION    = 53.1536
RA_OF_ASC_NODE = 87.1024
ARG_OF_PERICENTER = 39.7333
MEAN_ANOMALY   = 24.7012

EPHEMERIS_TYPE = 0
CLASSIFICATION_TYPE = U
NORAD_CAT_ID   = 66214
ELEMENT_SET_NO = 999
REV_AT_EPOCH   = 245
BSTAR          = -.66429399E-2
MEAN_MOTION_DOT = -.1349209E-1
MEAN_MOTION_DDOT = 0

CCSDS_OMM_VERS = 2.0
CREATION_DATE  = 
ORIGINATOR     = 

OBJECT_NAME    = STARLINK-35712
OBJECT_ID      = 2025-244K
CENTER_NAME    = EARTH
REF_FRAME      = TEME
TIME_SYSTEM    = UTC
MEAN_ELEMENT_THEORY = SGP/SGP4

EPOCH          = 2025-11-06T22:00:01.999584
MEAN_MOTION    = 15.84311032
ECCENTRICITY   = .00009265
INCLINATION    = 53.1536
RA_OF_ASC_NODE = 87.0943
ARG_OF_PERICENTER = 53.9337
MEAN_ANOMALY   = 14.6050

EPHEMERIS_TYPE = 0
CLASSIFICATION_TYPE = U
NORAD_CAT_ID   = 66215
ELEMENT_SET_NO = 999
REV_AT_EPOCH   = 245
BSTAR          = -.67054672E-2
MEAN_MOTION_DOT = -.1362075E-1
MEAN_MOTION_DDOT = 0

CCSDS_OMM_VERS = 2.0
CREATION_DATE  = 
ORIGINATOR     = 

OBJECT_NAME    = STARLINK-35709
OBJECT_ID      = 2025-244L
CENTER_NAME    = EARTH
REF_FRAME      = TEME
TIME_SYSTEM    = UTC
MEAN_ELEMENT_THEORY = SGP/SGP4

EPOCH          = 2025-11-06T22:00:01.999584
MEAN_MOTION    = 15.84263629
ECCENTRICITY   = .00008873
INCLINATION    = 53.1535
RA_OF_ASC_NODE = 87.1175
ARG_OF_PERICENTER = 47.7739
MEAN_ANOMALY   = 9.6331

EPHEMERIS_TYPE = 0
CLASSIFICATION_TYPE = U
NORAD_CAT_ID   = 66216
ELEMENT_SET_NO = 999
REV_AT_EPOCH   = 245
BSTAR          = -.65083535E-2
MEAN_MOTION_DOT = -.1324297E-1
MEAN_MOTION_DDOT = 0

CCSDS_OMM_VERS = 2.0
CREATION_DATE  = 
ORIGINATOR     = 

OBJECT_NAME    = STARLINK-35700
OBJECT_ID      = 2025-244M
CENTER_NAME    = EARTH
REF_FRAME      = TEME
TIME_SYSTEM    = UTC
MEAN_ELEMENT_THEORY = SGP/SGP4

EPOCH          = 2025-11-06T22:00:01.999584
MEAN_MOTION    = 15.84267530
ECCENTRICITY   = .00008934
INCLINATION    = 53.1536
RA_OF_ASC_NODE = 87.1123
ARG_OF_PERICENTER = 50.7565
MEAN_ANOMALY   = 9.1090

EPHEMERIS_TYPE = 0
CLASSIFICATION_TYPE = U
NORAD_CAT_ID   = 66217
ELEMENT_SET_NO = 999
REV_AT_EPOCH   = 245
BSTAR          = -.65917211E-2
MEAN_MOTION_DOT = -.1339373E-1
MEAN_MOTION_DDOT = 0

CCSDS_OMM_VERS = 2.0
CREATION_DATE  = 
ORIGINATOR     = 

OBJECT_NAME    = STARLINK-35722
OBJECT_ID      = 2025-244N
CENTER_NAME    = EARTH
REF_FRAME      = TEME
TIME_SYSTEM    = UTC
MEAN_ELEMENT_THEORY = SGP/SGP4

EPOCH          = 2025-11-06T22:00:01.999584
MEAN_MOTION    = 15.84277223
ECCENTRICITY   = .00009203
INCLINATION    = 53.1535
RA_OF_ASC_NODE = 87.1077
ARG_OF_PERICENTER = 44.6341
MEAN_ANOMALY   = 17.4158

EPHEMERIS_TYPE = 0
CLASSIFICATION_TYPE = U
NORAD_CAT_ID   = 66218
ELEMENT_SET_NO = 999
REV_AT_EPOCH   = 245
BSTAR          = -.66112179E-2
MEAN_MOTION_DOT = -.1343407E-1
MEAN_MOTION_DDOT = 0

CCSDS_OMM_VERS = 2.0
CREATION_DATE  = 
ORIGINATOR     = 

OBJECT_NAME    = STARLINK-35737
OBJECT_ID      = 2025-244P
CENTER_NAME    = EARTH
REF_FRAME      = TEME
TIME_SYSTEM    = UTC
MEAN_ELEMENT_THEORY = SGP/SGP4

EPOCH          = 2025-11-06T22:00:01.999584
MEAN_MOTION    = 15.84300563
ECCENTRICITY   = .00010943
INCLINATION    = 53.1538
RA_OF_ASC_NODE = 87.0987
ARG_OF_PERICENTER = 40.7395
MEAN_ANOMALY   = 25.6216

EPHEMERIS_TYPE = 0
CLASSIFICATION_TYPE = U
NORAD_CAT_ID   = 66219
ELEMENT_SET_NO = 999
REV_AT_EPOCH   = 261
BSTAR          = -.66787361E-2
MEAN_MOTION_DOT = -.1356847E-1
MEAN_MOTION_DDOT = 0

CCSDS_OMM_VERS = 2.0
CREATION_DATE  = 
ORIGINATOR     = 

OBJECT_NAME    = STARLINK-35677
OBJECT_ID      = 2025-244Q
CENTER_NAME    = EARTH
REF_FRAME      = TEME
TIME_SYSTEM    = UTC
MEAN_ELEMENT_THEORY = SGP/SGP4

EPOCH          = 2025-11-06T22:00:01.999584
MEAN_MOTION    = 15.84312694
ECCENTRICITY   = .00008963
INCLINATION    = 53.1535
RA_OF_ASC_NODE = 87.0893
ARG_OF_PERICENTER = 51.4940
MEAN_ANOMALY   = 19.5317

EPHEMERIS_TYPE = 0
CLASSIFICATION_TYPE = U
NORAD_CAT_ID   = 66220
ELEMENT_SET_NO = 999
REV_AT_EPOCH   = 245
BSTAR          = -.67931574E-2
MEAN_MOTION_DOT = -.1377666E-1
MEAN_MOTION_DDOT = 0

CCSDS_OMM_VERS = 2.0
CREATION_DATE  = 
ORIGINATOR     = 

OBJECT_NAME    = STARLINK-35704
OBJECT_ID      = 2025-244R
CENTER_NAME    = EARTH
REF_FRAME      = TEME
TIME_SYSTEM    = UTC
MEAN_ELEMENT_THEORY = SGP/SGP4

EPOCH          = 2025-11-06T22:00:01.999584
MEAN_MOTION    = 15.84325791
ECCENTRICITY   = .00010041
INCLINATION    = 53.1534
RA_OF_ASC_NODE = 87.0847
ARG_OF_PERICENTER = 38.6577
MEAN_ANOMALY   = 34.4118

EPHEMERIS_TYPE = 0
CLASSIFICATION_TYPE = U
NORAD_CAT_ID   = 66221
ELEMENT_SET_NO = 999
REV_AT_EPOCH   = 245
BSTAR          = -.67927634E-2
MEAN_MOTION_DOT = -.1378432E-1
MEAN_MOTION_DDOT = 0

CCSDS_OMM_VERS = 2.0
CREATION_DATE  = 
ORIGINATOR     = 

OBJECT_NAME    = STARLINK-35666
OBJECT_ID      = 2025-244S
CENTER_NAME    = EARTH
REF_FRAME      = TEME
TIME_SYSTEM    = UTC
MEAN_ELEMENT_THEORY = SGP/SGP4

EPOCH          = 2025-11-06T22:00:01.999584
MEAN_MOTION    = 15.84337029
ECCENTRICITY   = .00011579
INCLINATION    = 53.1537
RA_OF_ASC_NODE = 87.0754
ARG_OF_PERICENTER = 35.3783
MEAN_ANOMALY   = 42.3155

EPHEMERIS_TYPE = 0
CLASSIFICATION_TYPE = U
NORAD_CAT_ID   = 66222
ELEMENT_SET_NO = 999
REV_AT_EPOCH   = 256
BSTAR          = -.68797736E-2
MEAN_MOTION_DOT = -.1394548E-1
MEAN_MOTION_DDOT = 0

CCSDS_OMM_VERS = 2.0
CREATION_DATE  = 
ORIGINATOR     = 

OBJECT_NAME    = STARLINK-35664
OBJECT_ID      = 2025-244T
CENTER_NAME    = EARTH
REF_FRAME      = TEME
TIME_SYSTEM    = UTC
MEAN_ELEMENT_THEORY = SGP/SGP4

EPOCH          = 2025-11-06T22:00:01.999584
MEAN_MOTION    = 15.84317552
ECCENTRICITY   = .00011027
INCLINATION    = 53.1533
RA_OF_ASC_NODE = 87.0797
ARG_OF_PERICENTER = 41.8616
MEAN_ANOMALY   = 33.7603

EPHEMERIS_TYPE = 0
CLASSIFICATION_TYPE = U
NORAD_CAT_ID   = 66223
ELEMENT_SET_NO = 999
REV_AT_EPOCH   = 256
BSTAR          = -.68244539E-2
MEAN_MOTION_DOT = -.1383618E-1
MEAN_MOTION_DDOT = 0

