STARLINK-35710          
1 66212U 25244G   25310.91668981 -.01301144  00000+0 -63824-2 0  9993
2 66212  53.1537  87.1222 0001041  35.4442  19.5781 15.84250654  2589
STARLINK-34204          
1 66213U 25244H   25310.91668981 -.01290607  00000+0 -63315-2 0  9990
2 66213  53.1538  87.1268 0000900  50.7849   2.2327 15.84226943  2775
STARLINK-35714          
1 66214U 25244J   25310.91668981 -.01349209  00000+0 -66429-2 0  9993
2 66214  53.1536  87.1024 0001094  39.7333  24.7012 15.84278093  2452
STARLINK-35712          
1 66215U 25244K   25310.91668981 -.01362075  00000+0 -67055-2 0  9996
2 66215  53.1536  87.0943 0000926  53.9337  14.6050 15.84311032  2458
STARLINK-35709          
1 66216U 25244L   25310.91668981 -.01324297  00000+0 -65084-2 0  9991
2 66216  53.1535  87.1175 0000887  47.7739   9.6331 15.84263629  2453
STARLINK-35700          
1 66217U 25244M   25310.91668981 -.01339373  00000+0 -65917-2 0  9998
2 66217  53.1536  87.1123 0000893  50.7565   9.1090 15.84267530  2458
STARLINK-35722          
1 66218U 25244N   25310.91668981 -.01343407  00000+0 -66112-2 0  9990
2 66218  53.1535  87.1077 0000920  44.6341  17.4158 15.84277223  2458
STARLINK-35737          
1 66219U 25244P   25310.91668981 -.01356847  00000+0 -66787-2 0  9991
2 66219  53.1538  87.0987 0001094  40.7395  25.6216 15.84300563  2618
STARLINK-35677          
1 66220U 25244Q   25310.91668981 -.01377666  00000+0 -67932-2 0  9998
2 66220  53.1535  87.0893 0000896  51.4940  19.5317 15.84312694  2451
STARLINK-35704          
1 66221U 25244R   25310.91668981 -.01378432  00000+0 -67928-2 0  9996
2 66221  53.1534  87.0847 0001004  38.6577  34.4118 15.84325791  2452
STARLINK-35666          
1 66222U 25244S   25310.91668981 -.01394548  00000+0 -68798-2 0  9999
2 66222  53.1537  87.0754 0001157  35.3783  42.3155 15.84337029  2563
STARLINK-35664          
1 66223U 25244T   25310.91668981 -.01383618  00000+0 -68245-2 0  9993
2 66223  53.1533  87.0797 0001102  41.8616  33.7603 15.84317552  2565
